{
  "norad_id": 52639,
  "name": "STARLINK-3968",
  "history": [
    {
      "epoch": "2026-03-28T13:02:32.593056Z",
      "apogee_km": 540.6455902851867,
      "perigee_km": 538.8297865369732,
      "latitude_deg": 3.188932073993578e-05,
      "longitude_deg": 152.88655172365185,
      "height_km": 540.5347550719479,
      "semi_major_axis_km": 6917.87468841108,
      "eccentricity": 0.00013124,
      "inclination_deg": 53.2173,
      "raan_deg": 174.4847,
      "arg_perigee_deg": 83.7587,
      "mean_anomaly_deg": 276.3555,
      "mean_motion_rev_day": 15.08841865
    },
    {
      "epoch": "2026-03-29T22:25:37.756128Z",
      "apogee_km": 540.5282186261784,
      "perigee_km": 538.8567326682714,
      "latitude_deg": 1.9818329047009274e-05,
      "longitude_deg": 4.499666562543208,
      "height_km": 540.4549277386526,
      "semi_major_axis_km": 6917.829475647224,
      "eccentricity": 0.00012081,
      "inclination_deg": 53.2163,
      "raan_deg": 168.2404,
      "arg_perigee_deg": 80.8171,
      "mean_anomaly_deg": 279.2958,
      "mean_motion_rev_day": 15.08856657
    },
    {
      "epoch": "2026-03-30T12:44:06.868320Z",
      "apogee_km": 540.6228248095431,
      "perigee_km": 538.8555841543457,
      "latitude_deg": 4.874740124205038e-05,
      "longitude_deg": 146.6149756771266,
      "height_km": 540.6043402539085,
      "semi_major_axis_km": 6917.876204481944,
      "eccentricity": 0.00012773,
      "inclination_deg": 53.2167,
      "raan_deg": 165.5646,
      "arg_perigee_deg": 88.0151,
      "mean_anomaly_deg": 272.0988,
      "mean_motion_rev_day": 15.08841369
    },
    {
      "epoch": "2026-03-31T04:37:57.936288Z",
      "apogee_km": 540.638075628367,
      "perigee_km": 538.8278074220689,
      "latitude_deg": 1.6710244598001756e-05,
      "longitude_deg": -95.47591843124623,
      "height_km": 540.5129693714352,
      "semi_major_axis_km": 6917.869941525218,
      "eccentricity": 0.00013084,
      "inclination_deg": 53.2164,
      "raan_deg": 162.5894,
      "arg_perigee_deg": 82.6586,
      "mean_anomaly_deg": 277.4555,
      "mean_motion_rev_day": 15.08843418
    },
    {
      "epoch": "2026-04-01T09:14:54.900960Z",
      "apogee_km": 540.7404016231512,
      "perigee_km": 538.7854031107436,
      "latitude_deg": -1.0922851073299429e-05,
      "longitude_deg": -171.2393002822869,
      "height_km": 540.5568294785577,
      "semi_major_axis_km": 6917.899902366948,
      "eccentricity": 0.0001413,
      "inclination_deg": 53.2169,
      "raan_deg": 157.2386,
      "arg_perigee_deg": 84.0302,
      "mean_anomaly_deg": 276.0851,
      "mean_motion_rev_day": 15.08833616
    }
  ]
}